#aV2010 12 12  0  0   .00000000      96 DD+AD WGS84 FIT  NGA
## 1614       .00000000   900.00000000 55542  .0000000000000
+   32     1  2  3  4  5  6  7  8  9 10 11 12 13 14 15 16 17
+         18 19 20 21 22 23 24 25 26 27 28 29 30 31 32  0  0
+          0  0  0  0  0  0  0  0  0  0  0  0  0  0  0  0  0
+          0  0  0  0  0  0  0  0  0  0  0  0  0  0  0  0  0
+          0  0  0  0  0  0  0  0  0  0  0  0  0  0  0  0  0
++         0  0  0  0  0  0  0  0  0  0  0  0  0  0  0  0  0
++         0  0  0  0  0  0  0  0  0  0  0  0  0  0  0  0  0
++         0  0  0  0  0  0  0  0  0  0  0  0  0  0  0  0  0
++         0  0  0  0  0  0  0  0  0  0  0  0  0  0  0  0  0
++         0  0  0  0  0  0  0  0  0  0  0  0  0  0  0  0  0
%c cc cc ccc ccc cccc cccc cccc cccc ccccc ccccc ccccc ccccc
%c cc cc ccc ccc cccc cccc cccc cccc ccccc ccccc ccccc ccccc
%f  0.0000000  0.000000000  0.00000000000  0.000000000000000
%f  0.0000000  0.000000000  0.00000000000  0.000000000000000
%i    0    0    0    0      0      0      0      0         0
%i    0    0    0    0      0      0      0      0         0
/*      NGA, ST. LOUIS,MO.                                  
/*   EPHEMERIS COMPUTED FROM  3 DAYS OF DATA                
/* CCCCCCCCCCCCCCCCCCCCCCCCCCCCCCCCCCCCCCCCCCCCCCCCCCCCCCCCC
/* CCCCCCCCCCCCCCCCCCCCCCCCCCCCCCCCCCCCCCCCCCCCCCCCCCCCCCCCC
*  2010 12 12 18 45   .00000000                                                 
P  1  -7942.699969  17413.029748  18245.628343   -190.648626                    
V  1  -8143.465255 -22024.569965  17489.595182      -.034138                    
P  2   5555.119375 -14762.664201  21345.891590    308.211103                    
V  2  26437.004636   6459.754967  -2885.800061       .023392                    
P  3  -6866.288025  23186.732950 -11006.549453    647.686632                    
V  3 -10836.075412   8870.597077  26741.522423       .051993                    
P  4  17331.639336  -9245.877634  17835.598335    243.132390                    
V  4  21916.590493   7172.790258 -17032.475526       .097931                    
P  5  -1073.462022 -25025.774236   8660.339139    -81.837524                    
V  5   5840.289824   9796.496252  29079.550706      -.059690                    
P  6 -12224.109473  22322.667900  -7091.088938    393.257759                    
V  6  -8787.992142   4712.954761  29509.389649      -.099307                    
P  7  26051.912015   5568.975313  -1278.197815       .309165                    
V  7   1027.249530   2573.144854  31841.387443       .004320                    
P  8  23784.123493   -676.071107 -12347.881919      7.045356                    
V  8  14360.840221   5793.081093  26780.432961       .000432                    
P  9 -15485.625978 -14591.471408 -16448.249984     48.321649                    
V  9  19648.009030   2952.139289 -21831.329301       .024923                    
P 10   9792.804308 -15452.395193  18922.125257    -60.144112                    
V 10   8097.960281  23300.458187  15044.458774      -.010519                    
P 11  18874.943115  11972.485664 -14900.062209   -110.843424                    
V 11 -18490.213472   3373.311892 -20789.013278      -.028772                    
P 12 -11212.556402 -23242.529276   6650.765468    -45.467803                    
V 12   -159.914166  -8629.686194 -30437.480177       .034416                    
P 13  18083.862252    707.443880  19324.150054    289.298652                    
V 13 -17740.114168  17258.055139  15815.050780      -.011915                    
P 14 -21208.565166  14659.254853  -5917.331818    115.032610                    
V 14   4152.257372  -6861.196296 -31174.412021       .031546                    
P 15  -4620.202247 -16388.999703 -20331.949285   -172.774941                    
V 15  18357.655249 -18337.195075  10747.356422       .042057                    
P 16  -2912.355906  23003.941525  12723.646400   -133.832109                    
V 16  -6155.930715 -15123.563013  26270.291140      -.031561                    
P 17  21326.864275 -13382.021813  -7977.325366    179.529025                    
V 17  -5324.009809   9313.998948 -29661.473667       .008395                    
P 18 -16621.709148  -5324.758012 -19819.961504    109.887920                    
V 18  -5699.266870 -25205.819375  11012.863703       .021325                    
P 19    503.350554  17920.527236 -19483.907144    -91.445708                    
V 19 -19505.744897  15488.006946  14059.686503      -.034729                    
P 20  13955.096034  20672.177565   9088.440750     49.115516                    
V 20    624.764309  12186.532046 -28171.111045      -.001724                    
P 21 -26317.280473  -4828.728138  -2385.436540   -108.908221                    
V 21  -2536.978811  -3942.392756  30510.527313      -.027194                    
P 22 -13735.050223   8539.983011 -20889.210023    157.077157                    
V 22  -7726.693189 -25916.454853  -5562.825620      -.009374                    
P 23  10751.822705  10597.847643  21847.409775    338.487933                    
V 23 -19431.918338  19787.224768   -362.013891      -.021472                    
P 24  15009.339081  15886.803711 -15241.070192    347.120076                    
V 24 -19153.667507  -3509.344398 -22173.458461       .033544                    
P 25 -16233.021427 -12357.690545  16987.746135    -57.373512                    
V 25  -4739.351216 -21146.767369 -19897.631942      -.023268                    
P 26   7981.251596 -20606.126642 -14982.324135    -70.891020                    
V 26  14449.359535 -11084.089823  24263.605548      -.085722                    
P 27  -9869.803662 -14894.862262 -19059.843404    216.400702                    
V 27  25292.716660   3692.523533 -15206.837349       .035237                    
P 28  14129.125911  -4143.719157 -21602.936394      9.043891                    
V 28   7206.426002  27685.441610   -857.456751       .018266                    
P 29 -17217.082359  -2786.699302  20097.005172    170.006203                    
V 29  17340.335167 -18538.361758  12368.083694       .026881                    
P 30 -12162.333280   9974.941639  20999.571763    304.256117                    
V 30  -9569.191872 -25925.594878   6649.451996       .031881                    
P 31 -14886.864453  10055.323757  19840.228528     17.997832                    
V 31 -23683.803342  -6778.325569 -14307.011389       .039716                    
P 32   7120.200075  25702.273108   2644.906797   -151.764195                    
V 32  -1928.125325   3399.574312 -31188.323181      -.082724                    
EOF
